[{"OBJECT_NAME":"METEOSAT-11 (MSG-4)","OBJECT_ID":"2015-034A","EPOCH":"2026-03-03T20:57:56.448000","MEAN_MOTION":1.00265933,"ECCENTRICITY":0.00018033,"INCLINATION":2.9361,"RA_OF_ASC_NODE":71.6844,"ARG_OF_PERICENTER":270.7209,"MEAN_ANOMALY":143.1153,"EPHEMERIS_TYPE":0,"CLASSIFICATION_TYPE":"U","NORAD_CAT_ID":40732,"ELEMENT_SET_NO":999,"REV_AT_EPOCH":616,"BSTAR":0,"MEAN_MOTION_DOT":5.0e-7,"MEAN_MOTION_DDOT":0},{"OBJECT_NAME":"ELEKTRO-L 2","OBJECT_ID":"2015-074A","EPOCH":"2026-03-03T20:51:04.605984","MEAN_MOTION":1.00270829,"ECCENTRICITY":0.00034679,"INCLINATION":6.4296,"RA_OF_ASC_NODE":71.8188,"ARG_OF_PERICENTER":237.1165,"MEAN_ANOMALY":150.951,"EPHEMERIS_TYPE":0,"CLASSIFICATION_TYPE":"U","NORAD_CAT_ID":41105,"ELEMENT_SET_NO":999,"REV_AT_EPOCH":3745,"BSTAR":0,"MEAN_MOTION_DOT":-1.28e-6,"MEAN_MOTION_DDOT":0},{"OBJECT_NAME":"INSAT-3DR","OBJECT_ID":"2016-054A","EPOCH":"2026-03-03T22:59:07.866816","MEAN_MOTION":1.00272368,"ECCENTRICITY":0.00132899,"INCLINATION":0.046,"RA_OF_ASC_NODE":96.8891,"ARG_OF_PERICENTER":184.8413,"MEAN_ANOMALY":298.7404,"EPHEMERIS_TYPE":0,"CLASSIFICATION_TYPE":"U","NORAD_CAT_ID":41752,"ELEMENT_SET_NO":999,"REV_AT_EPOCH":3476,"BSTAR":0,"MEAN_MOTION_DOT":-9.0e-7,"MEAN_MOTION_DDOT":0},{"OBJECT_NAME":"HIMAWARI-9","OBJECT_ID":"2016-064A","EPOCH":"2026-03-03T23:18:06.049440","MEAN_MOTION":1.00272405,"ECCENTRICITY":0.00011519,"INCLINATION":0.0152,"RA_OF_ASC_NODE":182.6425,"ARG_OF_PERICENTER":183.5546,"MEAN_ANOMALY":285.8263,"EPHEMERIS_TYPE":0,"CLASSIFICATION_TYPE":"U","NORAD_CAT_ID":41836,"ELEMENT_SET_NO":999,"REV_AT_EPOCH":3415,"BSTAR":0,"MEAN_MOTION_DOT":-2.88e-6,"MEAN_MOTION_DDOT":0},{"OBJECT_NAME":"GOES 16","OBJECT_ID":"2016-071A","EPOCH":"2026-03-03T22:08:05.260704","MEAN_MOTION":1.00271688,"ECCENTRICITY":0.00025471,"INCLINATION":0.1461,"RA_OF_ASC_NODE":90.1616,"ARG_OF_PERICENTER":217.4792,"MEAN_ANOMALY":81.3532,"EPHEMERIS_TYPE":0,"CLASSIFICATION_TYPE":"U","NORAD_CAT_ID":41866,"ELEMENT_SET_NO":999,"REV_AT_EPOCH":3404,"BSTAR":0,"MEAN_MOTION_DOT":-1.04e-6,"MEAN_MOTION_DDOT":0},{"OBJECT_NAME":"FENGYUN 4A","OBJECT_ID":"2016-077A","EPOCH":"2026-03-03T23:13:14.015712","MEAN_MOTION":1.0027943,"ECCENTRICITY":0.00074797,"INCLINATION":2.0547,"RA_OF_ASC_NODE":81.4189,"ARG_OF_PERICENTER":135.8532,"MEAN_ANOMALY":56.3088,"EPHEMERIS_TYPE":0,"CLASSIFICATION_TYPE":"U","NORAD_CAT_ID":41882,"ELEMENT_SET_NO":999,"REV_AT_EPOCH":3387,"BSTAR":0,"MEAN_MOTION_DOT":-3.69e-6,"MEAN_MOTION_DDOT":0},{"OBJECT_NAME":"CYGFM05","OBJECT_ID":"2016-078A","EPOCH":"2026-03-03T20:19:32.077920","MEAN_MOTION":15.51825159,"ECCENTRICITY":0.00069738,"INCLINATION":34.9567,"RA_OF_ASC_NODE":235.704,"ARG_OF_PERICENTER":235.4679,"MEAN_ANOMALY":124.5386,"EPHEMERIS_TYPE":0,"CLASSIFICATION_TYPE":"U","NORAD_CAT_ID":41884,"ELEMENT_SET_NO":999,"REV_AT_EPOCH":51235,"BSTAR":0.00051339821,"MEAN_MOTION_DOT":0.00031788,"MEAN_MOTION_DDOT":0},{"OBJECT_NAME":"CYGFM04","OBJECT_ID":"2016-078B","EPOCH":"2026-03-03T18:44:00.494592","MEAN_MOTION":15.55205696,"ECCENTRICITY":0.00061281,"INCLINATION":34.9325,"RA_OF_ASC_NODE":208.4221,"ARG_OF_PERICENTER":268.4132,"MEAN_ANOMALY":91.589,"EPHEMERIS_TYPE":0,"CLASSIFICATION_TYPE":"U","NORAD_CAT_ID":41885,"ELEMENT_SET_NO":999,"REV_AT_EPOCH":51254,"BSTAR":0.00051484396,"MEAN_MOTION_DOT":0.00036077,"MEAN_MOTION_DDOT":0},{"OBJECT_NAME":"CYGFM02","OBJECT_ID":"2016-078C","EPOCH":"2026-03-03T19:38:39.518880","MEAN_MOTION":15.57345041,"ECCENTRICITY":0.00070895,"INCLINATION":34.9409,"RA_OF_ASC_NODE":205.1979,"ARG_OF_PERICENTER":269.4446,"MEAN_ANOMALY":90.5466,"EPHEMERIS_TYPE":0,"CLASSIFICATION_TYPE":"U","NORAD_CAT_ID":41886,"ELEMENT_SET_NO":999,"REV_AT_EPOCH":51269,"BSTAR":0.0012222674,"MEAN_MOTION_DOT":0.00093522,"MEAN_MOTION_DDOT":0},{"OBJECT_NAME":"CYGFM01","OBJECT_ID":"2016-078D","EPOCH":"2026-03-03T21:01:03.564480","MEAN_MOTION":15.52264938,"ECCENTRICITY":0.00066231,"INCLINATION":34.9394,"RA_OF_ASC_NODE":237.3329,"ARG_OF_PERICENTER":227.7937,"MEAN_ANOMALY":132.2224,"EPHEMERIS_TYPE":0,"CLASSIFICATION_TYPE":"U","NORAD_CAT_ID":41887,"ELEMENT_SET_NO":999,"REV_AT_EPOCH":51230,"BSTAR":0.00052817122,"MEAN_MOTION_DOT":0.00033232,"MEAN_MOTION_DDOT":0},{"OBJECT_NAME":"CYGFM08","OBJECT_ID":"2016-078E","EPOCH":"2026-03-03T20:40:23.970720","MEAN_MOTION":15.5373904,"ECCENTRICITY":0.00081524,"INCLINATION":34.943,"RA_OF_ASC_NODE":219.3646,"ARG_OF_PERICENTER":252.2571,"MEAN_ANOMALY":107.7263,"EPHEMERIS_TYPE":0,"CLASSIFICATION_TYPE":"U","NORAD_CAT_ID":41888,"ELEMENT_SET_NO":999,"REV_AT_EPOCH":51254,"BSTAR":0.00051957508,"MEAN_MOTION_DOT":0.00034512,"MEAN_MOTION_DDOT":0},{"OBJECT_NAME":"CYGFM07","OBJECT_ID":"2016-078G","EPOCH":"2026-03-03T19:55:59.460384","MEAN_MOTION":15.54427216,"ECCENTRICITY":0.00066635,"INCLINATION":34.945,"RA_OF_ASC_NODE":208.0526,"ARG_OF_PERICENTER":272.2402,"MEAN_ANOMALY":87.7559,"EPHEMERIS_TYPE":0,"CLASSIFICATION_TYPE":"U","NORAD_CAT_ID":41890,"ELEMENT_SET_NO":999,"REV_AT_EPOCH":51256,"BSTAR":0.00052035192,"MEAN_MOTION_DOT":0.00035434,"MEAN_MOTION_DDOT":0},{"OBJECT_NAME":"CYGFM03","OBJECT_ID":"2016-078H","EPOCH":"2026-03-03T17:41:54.839328","MEAN_MOTION":15.54436642,"ECCENTRICITY":0.00059407,"INCLINATION":34.9404,"RA_OF_ASC_NODE":210.6464,"ARG_OF_PERICENTER":256.6776,"MEAN_ANOMALY":103.3285,"EPHEMERIS_TYPE":0,"CLASSIFICATION_TYPE":"U","NORAD_CAT_ID":41891,"ELEMENT_SET_NO":999,"REV_AT_EPOCH":51252,"BSTAR":0.00051041487,"MEAN_MOTION_DOT":0.00034759,"MEAN_MOTION_DDOT":0},{"OBJECT_NAME":"FENGYUN 3D","OBJECT_ID":"2017-072A","EPOCH":"2026-03-03T22:15:43.993728","MEAN_MOTION":14.19711893,"ECCENTRICITY":0.00018418,"INCLINATION":99.0015,"RA_OF_ASC_NODE":35.5088,"ARG_OF_PERICENTER":25.2858,"MEAN_ANOMALY":334.8407,"EPHEMERIS_TYPE":0,"CLASSIFICATION_TYPE":"U","NORAD_CAT_ID":43010,"ELEMENT_SET_NO":999,"REV_AT_EPOCH":43005,"BSTAR":-6.0914949e-5,"MEAN_MOTION_DOT":-1.75e-6,"MEAN_MOTION_DDOT":0},{"OBJECT_NAME":"NOAA 20 (JPSS-1)","OBJECT_ID":"2017-073A","EPOCH":"2026-03-03T21:46:59.736576","MEAN_MOTION":14.1953432,"ECCENTRICITY":9.346e-5,"INCLINATION":98.7686,"RA_OF_ASC_NODE":3.3525,"ARG_OF_PERICENTER":145.489,"MEAN_ANOMALY":214.6347,"EPHEMERIS_TYPE":0,"CLASSIFICATION_TYPE":"U","NORAD_CAT_ID":43013,"ELEMENT_SET_NO":999,"REV_AT_EPOCH":42953,"BSTAR":6.9397212e-5,"MEAN_MOTION_DOT":1.02e-6,"MEAN_MOTION_DDOT":0},{"OBJECT_NAME":"GOES 17","OBJECT_ID":"2018-022A","EPOCH":"2026-03-03T22:12:27.342144","MEAN_MOTION":1.00270388,"ECCENTRICITY":0.00022748,"INCLINATION":0.6669,"RA_OF_ASC_NODE":87.5647,"ARG_OF_PERICENTER":220.8746,"MEAN_ANOMALY":96.8465,"EPHEMERIS_TYPE":0,"CLASSIFICATION_TYPE":"U","NORAD_CAT_ID":43226,"ELEMENT_SET_NO":999,"REV_AT_EPOCH":2936,"BSTAR":0,"MEAN_MOTION_DOT":-1.95e-6,"MEAN_MOTION_DDOT":0},{"OBJECT_NAME":"FENGYUN 2H","OBJECT_ID":"2018-050A","EPOCH":"2026-03-04T02:25:54.115392","MEAN_MOTION":1.00272888,"ECCENTRICITY":0.0001718,"INCLINATION":2.7598,"RA_OF_ASC_NODE":80.3634,"ARG_OF_PERICENTER":173.954,"MEAN_ANOMALY":23.0784,"EPHEMERIS_TYPE":0,"CLASSIFICATION_TYPE":"U","NORAD_CAT_ID":43491,"ELEMENT_SET_NO":999,"REV_AT_EPOCH":2838,"BSTAR":0,"MEAN_MOTION_DOT":-1.39e-6,"MEAN_MOTION_DDOT":0}]
